FLOCK 4G-10             
1 62670U 25009BP  26068.70827885  .00013952  00000+0  52624-3 0  9995
2 62670  97.3967 150.5883 0003469 341.4844  18.6269 15.27155944121340
STARLINK-35816          
1 66499U 25263Q   26068.15693726  .00038120  00000+0  13878-2 0  9995
2 66499  43.0030 354.0351 0001765 277.2488  82.8163 15.27576912 18815
